[
    {
        "Altitude(m)": 604983.0528367966,
        "Argument of Periapsis(deg)": 0.0,
        "Eccentricity": 0.0,
        "Inclination(deg)": 60.0,
        "Latitude(deg)": -0.09253730778080206,
        "Longitude(deg)": 80.0839164296341,
        "Mean Anomaly(deg)": 180.0,
        "RAAN(deg)": 0.0,
        "Satellite Name": "Test1 11",
        "Satellite Number": 11,
        "Semi-Major Axis(m)": 6980739.136638005,
        "Time(s)": 0
    },
    {
        "Altitude(m)": 605055.331523618,
        "Argument of Periapsis(deg)": 0.00010418945913296404,
        "Eccentricity": 0.0,
        "Inclination(deg)": 60.0,
        "Latitude(deg)": -0.6329470992162393,
        "Longitude(deg)": 80.35204150276941,
        "Mean Anomaly(deg)": 180.62010614546185,
        "RAAN(deg)": -0.0004200491397426661,
        "Satellite Name": "Test1 11",
        "Satellite Number": 11,
        "Semi-Major Axis(m)": 6980739.136638005,
        "Time(s)": 10
    }
]